{
  "norad_id": 60281,
  "name": "STARLINK-32038",
  "history": [
    {
      "epoch": "2026-03-28T21:37:37.764192Z",
      "apogee_km": 476.08219213810025,
      "perigee_km": 474.4392956309366,
      "latitude_deg": 2.089421028177663e-05,
      "longitude_deg": 172.33883307373057,
      "height_km": 476.21832085159406,
      "semi_major_axis_km": 6853.397743884518,
      "eccentricity": 0.00011986,
      "inclination_deg": 53.1615,
      "raan_deg": 323.0611,
      "arg_perigee_deg": 94.1362,
      "mean_anomaly_deg": 265.9776,
      "mean_motion_rev_day": 15.30184703
    },
    {
      "epoch": "2026-03-29T00:45:44.103744Z",
      "apogee_km": 476.1150639162888,
      "perigee_km": 474.38115748328164,
      "latitude_deg": 3.77004878791708e-05,
      "longitude_deg": 124.5763770227634,
      "height_km": 476.1897077445639,
      "semi_major_axis_km": 6853.385110699785,
      "eccentricity": 0.0001265,
      "inclination_deg": 53.1621,
      "raan_deg": 322.4538,
      "arg_perigee_deg": 92.8627,
      "mean_anomaly_deg": 267.2519,
      "mean_motion_rev_day": 15.30188934
    },
    {
      "epoch": "2026-03-30T00:16:33.284640Z",
      "apogee_km": 476.08114337679217,
      "perigee_km": 474.50074289310396,
      "latitude_deg": 3.778016808828521e-05,
      "longitude_deg": 126.35488542939196,
      "height_km": 476.24596342165836,
      "semi_major_axis_km": 6853.427943134948,
      "eccentricity": 0.0001153,
      "inclination_deg": 53.1617,
      "raan_deg": 317.9029,
      "arg_perigee_deg": 94.1086,
      "mean_anomaly_deg": 266.0047,
      "mean_motion_rev_day": 15.30174589
    },
    {
      "epoch": "2026-03-30T00:16:33.285504Z",
      "apogee_km": 476.08114337679217,
      "perigee_km": 474.50074289310396,
      "latitude_deg": 3.778016845379173e-05,
      "longitude_deg": 126.35498181953781,
      "height_km": 476.24596342166035,
      "semi_major_axis_km": 6853.427943134948,
      "eccentricity": 0.0001153,
      "inclination_deg": 53.1617,
      "raan_deg": 317.903,
      "arg_perigee_deg": 94.1086,
      "mean_anomaly_deg": 266.0047,
      "mean_motion_rev_day": 15.30174589
    },
    {
      "epoch": "2026-03-30T14:23:01.476096Z",
      "apogee_km": 476.04830559764923,
      "perigee_km": 474.4722983540869,
      "latitude_deg": 5.792433991024554e-05,
      "longitude_deg": -88.57225131442175,
      "height_km": 476.20530497491944,
      "semi_major_axis_km": 6853.397301975868,
      "eccentricity": 0.00011498,
      "inclination_deg": 53.1621,
      "raan_deg": 315.1726,
      "arg_perigee_deg": 93.3867,
      "mean_anomaly_deg": 266.7266,
      "mean_motion_rev_day": 15.30184851
    },
    {
      "epoch": "2026-03-30T20:39:13.287744Z",
      "apogee_km": 476.018213675271,
      "perigee_km": 474.4228891044586,
      "latitude_deg": -9.023679742488492e-06,
      "longitude_deg": 175.90828631074945,
      "height_km": 476.1275738182633,
      "semi_major_axis_km": 6853.357551389864,
      "eccentricity": 0.00011639,
      "inclination_deg": 53.1619,
      "raan_deg": 313.9599,
      "arg_perigee_deg": 90.6176,
      "mean_anomaly_deg": 269.4958,
      "mean_motion_rev_day": 15.30198164
    },
    {
      "epoch": "2026-03-31T21:44:07.516320Z",
      "apogee_km": 476.23547808777766,
      "perigee_km": 474.4398677234758,
      "latitude_deg": -7.024735522429767e-05,
      "longitude_deg": 153.79771967521324,
      "height_km": 476.09259086737995,
      "semi_major_axis_km": 6853.474672905626,
      "eccentricity": 0.000131,
      "inclination_deg": 53.1612,
      "raan_deg": 309.1054,
      "arg_perigee_deg": 80.8188,
      "mean_anomaly_deg": 279.296,
      "mean_motion_rev_day": 15.30158939
    },
    {
      "epoch": "2026-04-01T21:14:53.247264Z",
      "apogee_km": 476.5146383575975,
      "perigee_km": 474.2433831516337,
      "latitude_deg": 3.986693079530455e-05,
      "longitude_deg": 155.58982493256917,
      "height_km": 476.15646530370685,
      "semi_major_axis_km": 6853.516010754615,
      "eccentricity": 0.0001657,
      "inclination_deg": 53.1624,
      "raan_deg": 304.5536,
      "arg_perigee_deg": 83.9178,
      "mean_anomaly_deg": 276.2012,
      "mean_motion_rev_day": 15.30145095
    },
    {
      "epoch": "2026-04-02T20:45:40.845312Z",
      "apogee_km": 475.8789340544108,
      "perigee_km": 474.55239911226727,
      "latitude_deg": -4.675623029883848e-05,
      "longitude_deg": 157.37538224052844,
      "height_km": 475.88268633579486,
      "semi_major_axis_km": 6853.352666583339,
      "eccentricity": 9.678e-05,
      "inclination_deg": 53.1594,
      "raan_deg": 300.0032,
      "arg_perigee_deg": 69.5729,
      "mean_anomaly_deg": 290.5375,
      "mean_motion_rev_day": 15.301998
    },
    {
      "epoch": "2026-04-03T18:42:25.957440Z",
      "apogee_km": 475.98069910441154,
      "perigee_km": 474.4743295841581,
      "latitude_deg": -5.4401079603365366e-05,
      "longitude_deg": -176.96117524680602,
      "height_km": 475.897653770042,
      "semi_major_axis_km": 6853.3645143442845,
      "eccentricity": 0.0001099,
      "inclination_deg": 53.1603,
      "raan_deg": 295.7559,
      "arg_perigee_deg": 72.3569,
      "mean_anomaly_deg": 287.7551,
      "mean_motion_rev_day": 15.30195832
    },
    {
      "epoch": "2026-04-04T19:47:13.174656Z",
      "apogee_km": 475.9310900596929,
      "perigee_km": 474.35209467201184,
      "latitude_deg": -9.356559354276838e-06,
      "longitude_deg": 160.95862904221806,
      "height_km": 475.8841815856797,
      "semi_major_axis_km": 6853.278592365852,
      "eccentricity": 0.0001152,
      "inclination_deg": 53.1609,
      "raan_deg": 290.9024,
      "arg_perigee_deg": 78.6194,
      "mean_anomaly_deg": 281.4936,
      "mean_motion_rev_day": 15.30224609
    },
    {
      "epoch": "2026-04-05T13:01:52.077504Z",
      "apogee_km": 476.30715611402957,
      "perigee_km": 474.2464716484719,
      "latitude_deg": -5.092382091458297e-05,
      "longitude_deg": -101.74178991813109,
      "height_km": 475.4544161510897,
      "semi_major_axis_km": 6853.4138138812505,
      "eccentricity": 0.00015034,
      "inclination_deg": 53.1605,
      "raan_deg": 287.5723,
      "arg_perigee_deg": 45.6068,
      "mean_anomaly_deg": 314.5055,
      "mean_motion_rev_day": 15.30179321
    },
    {
      "epoch": "2026-04-05T19:18:04.628736Z",
      "apogee_km": 476.08204371803913,
      "perigee_km": 474.4536747234879,
      "latitude_deg": -4.232001337816121e-05,
      "longitude_deg": 162.732013185544,
      "height_km": 475.67026134928255,
      "semi_major_axis_km": 6853.404859220763,
      "eccentricity": 0.0001188,
      "inclination_deg": 53.1606,
      "raan_deg": 286.3559,
      "arg_perigee_deg": 52.4517,
      "mean_anomaly_deg": 307.6591,
      "mean_motion_rev_day": 15.3018232
    },
    {
      "epoch": "2026-04-05T22:26:10.602816Z",
      "apogee_km": 476.06761578363603,
      "perigee_km": 474.4351386721801,
      "latitude_deg": -7.616153728409727e-06,
      "longitude_deg": 114.96949722737678,
      "height_km": 475.7055786931648,
      "semi_major_axis_km": 6853.388377227908,
      "eccentricity": 0.0001191,
      "inclination_deg": 53.1602,
      "raan_deg": 285.747,
      "arg_perigee_deg": 57.0242,
      "mean_anomaly_deg": 303.0873,
      "mean_motion_rev_day": 15.3018784
    },
    {
      "epoch": "2026-04-07T05:47:11.468544Z",
      "apogee_km": 476.0384378147528,
      "perigee_km": 474.26001003964393,
      "latitude_deg": -6.593533721749397e-06,
      "longitude_deg": -2.641521142481748,
      "height_km": 475.98864546256084,
      "semi_major_axis_km": 6853.286223927198,
      "eccentricity": 0.00012975,
      "inclination_deg": 53.1607,
      "raan_deg": 279.6771,
      "arg_perigee_deg": 86.2146,
      "mean_anomaly_deg": 273.9003,
      "mean_motion_rev_day": 15.30222053
    },
    {
      "epoch": "2026-04-07T19:53:42.592416Z",
      "apogee_km": 476.06987339687385,
      "perigee_km": 474.4182085659986,
      "latitude_deg": 4.007321281325457e-05,
      "longitude_deg": 142.41890761973445,
      "height_km": 476.08937554234143,
      "semi_major_axis_km": 6853.381040981436,
      "eccentricity": 0.0001205,
      "inclination_deg": 53.16,
      "raan_deg": 276.9466,
      "arg_perigee_deg": 86.3326,
      "mean_anomaly_deg": 273.7813,
      "mean_motion_rev_day": 15.30190297
    },
    {
      "epoch": "2026-04-08T11:34:15.084192Z",
      "apogee_km": 476.1352583595344,
      "perigee_km": 474.39175327085377,
      "latitude_deg": -2.9572421190509213e-06,
      "longitude_deg": -96.394486631366,
      "height_km": 476.09538434600637,
      "semi_major_axis_km": 6853.400505815193,
      "eccentricity": 0.0001272,
      "inclination_deg": 53.1601,
      "raan_deg": 273.9124,
      "arg_perigee_deg": 85.6445,
      "mean_anomaly_deg": 274.4701,
      "mean_motion_rev_day": 15.30183778
    },
    {
      "epoch": "2026-04-08T20:58:34.463136Z",
      "apogee_km": 476.07103649697,
      "perigee_km": 474.43718805580284,
      "latitude_deg": -4.107494080898628e-05,
      "longitude_deg": 120.3191728033139,
      "height_km": 476.06528354413297,
      "semi_major_axis_km": 6853.391112276386,
      "eccentricity": 0.0001192,
      "inclination_deg": 53.1602,
      "raan_deg": 272.0931,
      "arg_perigee_deg": 83.8835,
      "mean_anomaly_deg": 276.2301,
      "mean_motion_rev_day": 15.30186924
    },
    {
      "epoch": "2026-04-10T04:19:38.079840Z",
      "apogee_km": 476.16867971846114,
      "perigee_km": 474.34252472567186,
      "latitude_deg": -9.00212267691112e-06,
      "longitude_deg": 2.698283361113934,
      "height_km": 476.21047983091484,
      "semi_major_axis_km": 6853.392602222066,
      "eccentricity": 0.00013323,
      "inclination_deg": 53.1606,
      "raan_deg": 266.0248,
      "arg_perigee_deg": 93.5681,
      "mean_anomaly_deg": 266.5472,
      "mean_motion_rev_day": 15.30186425
    }
  ]
}